{"type":"Topology","objects":{"scholen.geo":{"type":"GeometryCollection","crs":{"type":"name","properties":{"name":"urn:ogc:def:crs:OGC:1.3:CRS84"}},"geometries":[{"type":"Point","properties":{"VESTIGINGSNAAM":"Scholengemeenschap Spieringshoek voor Gymnasium Atheneum en HAVO","WIJK":null,"buurt":null,"STRAATNAAM":"Van der Brugghenlaan","HUISNUMMER-TOEVOEGING":"2","POSTCODE":"3118 LA","PLAATSNAAM":"SCHIEDAM","DENOMINATIE":"Rooms-Katholiek","lat":51.919669,"long":4.378013},"coordinates":[2602,3960]},{"type":"Point","properties":{"VESTIGINGSNAAM":"Lentiz locatie Lentiz VMBO Life College","WIJK":null,"buurt":null,"STRAATNAAM":"Parallelweg","HUISNUMMER-TOEVOEGING":"401","POSTCODE":"3112 NA","PLAATSNAAM":"SCHIEDAM","DENOMINATIE":"Samenwerking PC, RK","lat":51.92237,"long":4.413619},"coordinates":[9983,4643]},{"type":"Point","properties":{"VESTIGINGSNAAM":"Lyceum Schravenlant voor Atheneum en Havo","WIJK":null,"buurt":null,"STRAATNAAM":"Hugo de Grootstraat","HUISNUMMER-TOEVOEGING":"4","POSTCODE":"3119 HA","PLAATSNAAM":"SCHIEDAM","DENOMINATIE":"Openbaar","lat":51.924944,"long":4.391161},"coordinates":[5328,5295]},{"type":"Point","properties":{"VESTIGINGSNAAM":"ProNovaCollege voor Praktijkonderwijs","WIJK":null,"buurt":null,"STRAATNAAM":"Burg Honnerlage Greteln","HUISNUMMER-TOEVOEGING":"494","POSTCODE":"3118 BB","PLAATSNAAM":"SCHIEDAM","DENOMINATIE":"Openbaar","lat":51.917289,"long":4.386424},"coordinates":[4346,3358]},{"type":"Point","properties":{"VESTIGINGSNAAM":"Mavo Schravenlant XL voor mavo en vmbo","WIJK":null,"buurt":null,"STRAATNAAM":"Van der Leeuwlaan","HUISNUMMER-TOEVOEGING":"3","POSTCODE":"3118 LP","PLAATSNAAM":"SCHIEDAM","DENOMINATIE":"Openbaar","lat":51.920799,"long":4.380698},"coordinates":[3159,4246]},{"type":"Point","properties":{"VESTIGINGSNAAM":"Het College Vos","WIJK":null,"buurt":null,"STRAATNAAM":"Bachplein","HUISNUMMER-TOEVOEGING":"578","POSTCODE":"3122 JM","PLAATSNAAM":"SCHIEDAM","DENOMINATIE":"Openbaar","lat":51.935924,"long":4.372351},"coordinates":[1429,8073]},{"type":"Point","properties":{"VESTIGINGSNAAM":"Stedelyk Gymnasium","WIJK":null,"buurt":null,"STRAATNAAM":"Valeriusstraat","HUISNUMMER-TOEVOEGING":"29 -31","POSTCODE":"3122 AM","PLAATSNAAM":"SCHIEDAM","DENOMINATIE":"Openbaar","lat":51.928053,"long":4.374224},"coordinates":[1817,6081]},{"type":"Point","properties":{"VESTIGINGSNAAM":"Gravin Aleidaschool ","WIJK":"Oost, Binnenstad","buurt":null,"STRAATNAAM":"Oostsingel ","HUISNUMMER-TOEVOEGING":"9","POSTCODE":"3112 GC  ","PLAATSNAAM":"SCHIEDAM","DENOMINATIE":null,"lat":51.91894,"long":4.406499},"coordinates":[8507,3776]},{"type":"Point","properties":{"VESTIGINGSNAAM":"De Regenboog","WIJK":"Woudhoek","buurt":null,"STRAATNAAM":"Warmoezenierstraat","HUISNUMMER-TOEVOEGING":"36","POSTCODE":"3123 EN","PLAATSNAAM":"SCHIEDAM","DENOMINATIE":"Algemeen bijzonder","lat":51.94301,"long":4.365459},"coordinates":[0,9866]},{"type":"Point","properties":{"VESTIGINGSNAAM":"Protestants Christelijke-Rooms Katholieke Basisschool De Regenboog","WIJK":"Groenoord, Kethel","buurt":null,"STRAATNAAM":"Eduard van Beinumlaan","HUISNUMMER-TOEVOEGING":"64","POSTCODE":"3122 TL","PLAATSNAAM":"SCHIEDAM","DENOMINATIE":"Algemeen bijzonder","lat":51.930466,"long":4.372309},"coordinates":[1420,6692]},{"type":"Point","properties":{"VESTIGINGSNAAM":"De Vlinder","WIJK":"Spaland","buurt":null,"STRAATNAAM":"Stockholm","HUISNUMMER-TOEVOEGING":"3","POSTCODE":"3124 SG","PLAATSNAAM":"SCHIEDAM","DENOMINATIE":"Rooms-Katholiek","lat":51.942735,"long":4.383632},"coordinates":[3767,9797]},{"type":"Point","properties":{"VESTIGINGSNAAM":"Rooms Katholieke Basisschool 't Meesterwerk","WIJK":"Nieuwland","buurt":null,"STRAATNAAM":"De Meesterstraat","HUISNUMMER-TOEVOEGING":"40","POSTCODE":"3119 PJ","PLAATSNAAM":"SCHIEDAM","DENOMINATIE":"Rooms-Katholiek","lat":51.921056,"long":4.391752},"coordinates":[5450,4311]},{"type":"Point","properties":{"VESTIGINGSNAAM":"Sint Willibrordusschool","WIJK":"Zuid","buurt":null,"STRAATNAAM":"Poortugaalsestraat","HUISNUMMER-TOEVOEGING":"19","POSTCODE":"3114 XH","PLAATSNAAM":"SCHIEDAM","DENOMINATIE":"Rooms-Katholiek","lat":51.904019,"long":4.404464},"coordinates":[8086,0]},{"type":"Point","properties":{"VESTIGINGSNAAM":"Sint Jan","WIJK":"Oost, Binnenstad","buurt":null,"STRAATNAAM":"Van Swindensingel","HUISNUMMER-TOEVOEGING":"66","POSTCODE":"3112 RK","PLAATSNAAM":"SCHIEDAM","DENOMINATIE":"Rooms-Katholiek","lat":51.916506,"long":4.406927},"coordinates":[8596,3160]},{"type":"Point","properties":{"VESTIGINGSNAAM":"Sint Jozefschool","WIJK":"West","buurt":null,"STRAATNAAM":"Nassaulaan","HUISNUMMER-TOEVOEGING":"42","POSTCODE":"3116 EX","PLAATSNAAM":"SCHIEDAM","DENOMINATIE":"Rooms-Katholiek","lat":51.910264,"long":4.399458},"coordinates":[7048,1580]},{"type":"Point","properties":{"VESTIGINGSNAAM":"Sint Bernardus","WIJK":"West","buurt":null,"STRAATNAAM":"Bosboomlaan","HUISNUMMER-TOEVOEGING":"5","POSTCODE":"3116 JB","PLAATSNAAM":"SCHIEDAM","DENOMINATIE":"Rooms-Katholiek","lat":51.911181,"long":4.381753},"coordinates":[3378,1812]},{"type":"Point","properties":{"VESTIGINGSNAAM":"El Furkan Basisschool","WIJK":"Groenoord, Kethel","buurt":null,"STRAATNAAM":"Eduard van Beinumlaan","HUISNUMMER-TOEVOEGING":"61","POSTCODE":"3122 TK","PLAATSNAAM":"SCHIEDAM","DENOMINATIE":"Islamitisch","lat":51.930369,"long":4.371564},"coordinates":[1266,6668]},{"type":"Point","properties":{"VESTIGINGSNAAM":"IBS Ababil","WIJK":"Nieuwland","buurt":null,"STRAATNAAM":"Dr. Kuyperlaan","HUISNUMMER-TOEVOEGING":"12","POSTCODE":"3118 RR","PLAATSNAAM":"SCHIEDAM","DENOMINATIE":"Islamitisch","lat":51.918373,"long":4.386614},"coordinates":[4385,3632]},{"type":"Point","properties":{"VESTIGINGSNAAM":"Protestants Christelijke Basisschool Het Talent","WIJK":"Nieuwland","buurt":null,"STRAATNAAM":"De Wildestraat","HUISNUMMER-TOEVOEGING":"38 -40","POSTCODE":"3119 PM","PLAATSNAAM":"SCHIEDAM","DENOMINATIE":"Protestants-Christelijk","lat":51.92065,"long":4.39022},"coordinates":[5133,4208]},{"type":"Point","properties":{"VESTIGINGSNAAM":"Christelijke Basisschool Kethel","WIJK":"Groenoord, Kethel","buurt":null,"STRAATNAAM":"Vlaardingseweg","HUISNUMMER-TOEVOEGING":"23","POSTCODE":"3121 JM","PLAATSNAAM":"SCHIEDAM","DENOMINATIE":"Protestants-Christelijk","lat":51.936277,"long":4.376578},"coordinates":[2305,8162]},{"type":"Point","properties":{"VESTIGINGSNAAM":"Basisschool de Peperklip","WIJK":"Oost, Binnenstad","buurt":null,"STRAATNAAM":"Fahrenheitstraat","HUISNUMMER-TOEVOEGING":"2 -4","POSTCODE":"3112 ZM","PLAATSNAAM":"SCHIEDAM","DENOMINATIE":"Openbaar","lat":51.919461,"long":4.412621},"coordinates":[9777,3907]},{"type":"Point","properties":{"VESTIGINGSNAAM":"Basisschool de Singel","WIJK":"Oost, Binnenstad","buurt":null,"STRAATNAAM":"Singel","HUISNUMMER-TOEVOEGING":"5","POSTCODE":"3112 GH","PLAATSNAAM":"SCHIEDAM","DENOMINATIE":"Openbaar","lat":51.915539,"long":4.403587},"coordinates":[7904,2915]},{"type":"Point","properties":{"VESTIGINGSNAAM":"Montessori Schiedam","WIJK":"West","buurt":null,"STRAATNAAM":"Anthonie Muysstraat","HUISNUMMER-TOEVOEGING":"2","POSTCODE":"3117 LD","PLAATSNAAM":"SCHIEDAM","DENOMINATIE":"Openbaar","lat":51.912319,"long":4.391358},"coordinates":[5369,2100]},{"type":"Point","properties":{"VESTIGINGSNAAM":"De Kring/Annie MG Schmidt School","WIJK":"West","buurt":null,"STRAATNAAM":"Frans Halsplein","HUISNUMMER-TOEVOEGING":"33","POSTCODE":"3117 WE","PLAATSNAAM":"SCHIEDAM","DENOMINATIE":"Openbaar","lat":51.913481,"long":4.38157},"coordinates":[3340,2394]},{"type":"Point","properties":{"VESTIGINGSNAAM":"Het Startblok","WIJK":"Nieuwland","buurt":null,"STRAATNAAM":"Burg van Haarenlaan","HUISNUMMER-TOEVOEGING":"871","POSTCODE":"3119 GD","PLAATSNAAM":"SCHIEDAM","DENOMINATIE":"Openbaar","lat":51.923185,"long":4.389791},"coordinates":[5044,4850]},{"type":"Point","properties":{"VESTIGINGSNAAM":"De Taaltuin","WIJK":"Nieuwland","buurt":null,"STRAATNAAM":"Thorbeckesingel","HUISNUMMER-TOEVOEGING":"4","POSTCODE":"3118 RW","PLAATSNAAM":"SCHIEDAM","DENOMINATIE":"Openbaar","lat":51.918066,"long":4.386489},"coordinates":[4359,3554]},{"type":"Point","properties":{"VESTIGINGSNAAM":"Het Windas","WIJK":"Groenoord, Kethel","buurt":null,"STRAATNAAM":"Nachtegaallaan","HUISNUMMER-TOEVOEGING":"2","POSTCODE":"3121 XP","PLAATSNAAM":"SCHIEDAM","DENOMINATIE":"Openbaar","lat":51.933616,"long":4.380779},"coordinates":[3176,7489]},{"type":"Point","properties":{"VESTIGINGSNAAM":"De Troubadour","WIJK":"Groenoord, Kethel","buurt":null,"STRAATNAAM":"Peter van Anrooylaan","HUISNUMMER-TOEVOEGING":"1","POSTCODE":"3122 TA","PLAATSNAAM":"SCHIEDAM","DENOMINATIE":"Openbaar","lat":51.929048,"long":4.3702},"coordinates":[983,6333]},{"type":"Point","properties":{"VESTIGINGSNAAM":"De Violier","WIJK":"Spaland","buurt":null,"STRAATNAAM":"Stockholm","HUISNUMMER-TOEVOEGING":"1","POSTCODE":"3124 SG","PLAATSNAAM":"SCHIEDAM","DENOMINATIE":"Openbaar","lat":51.942755,"long":4.383515},"coordinates":[3743,9802]},{"type":"Point","properties":{"VESTIGINGSNAAM":"Basisschool de Klinker","WIJK":"Woudhoek","buurt":null,"STRAATNAAM":"Bernardus IJzerdraatsngl","HUISNUMMER-TOEVOEGING":"1","POSTCODE":"3123 CC","PLAATSNAAM":"SCHIEDAM","DENOMINATIE":"Openbaar","lat":51.943535,"long":4.366368},"coordinates":[188,9999]},{"type":"Point","properties":{"VESTIGINGSNAAM":"SBO De Poldervaart","WIJK":"Groenoord, Kethel","buurt":null,"STRAATNAAM":"Prinses Beatrixlaan","HUISNUMMER-TOEVOEGING":"20","POSTCODE":"3121 JN","PLAATSNAAM":"SCHIEDAM","DENOMINATIE":"Openbaar","lat":51.928828,"long":4.381112},"coordinates":[3245,6278]},{"type":"Point","properties":{"VESTIGINGSNAAM":"Mw Dr CP Gelinckschool","WIJK":"Groenoord, Kethel","buurt":null,"STRAATNAAM":"Prinses Beatrixlaan","HUISNUMMER-TOEVOEGING":"18","POSTCODE":"3121 JN","PLAATSNAAM":"SCHIEDAM","DENOMINATIE":"Algemeen bijzonder","lat":51.92885,"long":4.379739},"coordinates":[2960,6283]},{"type":"Point","properties":{"VESTIGINGSNAAM":"Yulius Ilex College","WIJK":null,"buurt":null,"STRAATNAAM":"Burg van Haarenlaan","HUISNUMMER-TOEVOEGING":"1155","POSTCODE":"3118 GC","PLAATSNAAM":"SCHIEDAM","DENOMINATIE":"Algemeen bijzonder","lat":51.920072,"long":4.383097},"coordinates":[3656,4062]},{"type":"Point","properties":{"VESTIGINGSNAAM":"De Gorzen ","WIJK":"Zuid","buurt":null,"STRAATNAAM":"Dwarsstraat","HUISNUMMER-TOEVOEGING":"2","POSTCODE":"3114 LC  ","PLAATSNAAM":"SCHIEDAM","DENOMINATIE":null,"lat":51.906765,"long":4.406546},"coordinates":[8517,695]},{"type":"Point","properties":{"VESTIGINGSNAAM":"De Wieken","WIJK":"West","buurt":null,"STRAATNAAM":"Westfrankelandsestraat ","HUISNUMMER-TOEVOEGING":"152","POSTCODE":"3117 AZ  ","PLAATSNAAM":"SCHIEDAM","DENOMINATIE":null,"lat":51.913874,"long":4.386598},"coordinates":[4382,2494]},{"type":"Point","properties":{"VESTIGINGSNAAM":"Mavo Schravenlant XL","WIJK":null,"buurt":null,"STRAATNAAM":"Van der Leeuwlaan","HUISNUMMER-TOEVOEGING":"3","POSTCODE":"3118 LP  ","PLAATSNAAM":"SCHIEDAM","DENOMINATIE":null,"lat":51.920699,"long":4.380612},"coordinates":[3141,4221]},{"type":"Point","properties":{"VESTIGINGSNAAM":"Mavo Schravenlant XL","WIJK":null,"buurt":null,"STRAATNAAM":"Burg. Van Haarenlaan ","HUISNUMMER-TOEVOEGING":"952","POSTCODE":"3118 GL  ","PLAATSNAAM":"SCHIEDAM","DENOMINATIE":null,"lat":51.920641,"long":4.382005},"coordinates":[3430,4206]},{"type":"Point","properties":{"VESTIGINGSNAAM":"Mavo Schravenlant XL","WIJK":null,"buurt":null,"STRAATNAAM":"Van Hogendorpstraat ","HUISNUMMER-TOEVOEGING":"105","POSTCODE":"3118 LG  ","PLAATSNAAM":"SCHIEDAM","DENOMINATIE":null,"lat":51.921131,"long":4.382286},"coordinates":[3488,4330]},{"type":"Point","properties":{"VESTIGINGSNAAM":"Lyceum Schravenlant ","WIJK":null,"buurt":null,"STRAATNAAM":"Hugo de Grootstraat ","HUISNUMMER-TOEVOEGING":"4","POSTCODE":"3119 HA  ","PLAATSNAAM":"SCHIEDAM","DENOMINATIE":null,"lat":51.924905,"long":4.391054},"coordinates":[5306,5285]},{"type":"Point","properties":{"VESTIGINGSNAAM":"Stedelijk Gymnasium Schiedam ","WIJK":null,"buurt":null,"STRAATNAAM":"Valeriusstraat","HUISNUMMER-TOEVOEGING":"29-31","POSTCODE":"3122 AM  ","PLAATSNAAM":"SCHIEDAM","DENOMINATIE":null,"lat":51.92804,"long":4.374256},"coordinates":[1824,6078]},{"type":"Point","properties":{"VESTIGINGSNAAM":"De Internationale Vos (ISK)","WIJK":null,"buurt":null,"STRAATNAAM":"Bachplein ","HUISNUMMER-TOEVOEGING":"578","POSTCODE":"3122 JM  ","PLAATSNAAM":"SCHIEDAM","DENOMINATIE":null,"lat":51.935924,"long":4.372426},"coordinates":[1444,8073]},{"type":"Point","properties":{"VESTIGINGSNAAM":"Lentiz | LIFE College ","WIJK":null,"buurt":null,"STRAATNAAM":"Parallelweg ","HUISNUMMER-TOEVOEGING":"401","POSTCODE":"3112 NA  ","PLAATSNAAM":"SCHIEDAM","DENOMINATIE":null,"lat":51.922363,"long":4.413694},"coordinates":[9999,4642]},{"type":"Point","properties":{"VESTIGINGSNAAM":"Spieringshoek ","WIJK":null,"buurt":null,"STRAATNAAM":"Van der Brugghenlaan ","HUISNUMMER-TOEVOEGING":"42157","POSTCODE":"3118 LA  ","PLAATSNAAM":"SCHIEDAM","DENOMINATIE":null,"lat":51.919619,"long":4.378026},"coordinates":[2605,3947]},{"type":"Point","properties":{"VESTIGINGSNAAM":"ProNovaCollege ","WIJK":null,"buurt":null,"STRAATNAAM":"Burg. Honnerlage Gretelaan ","HUISNUMMER-TOEVOEGING":"494","POSTCODE":"3118 BB  ","PLAATSNAAM":"SCHIEDAM","DENOMINATIE":null,"lat":51.917275,"long":4.386349},"coordinates":[4330,3354]},{"type":"Point","properties":{"VESTIGINGSNAAM":"ROC Zadkine ","WIJK":null,"buurt":null,"STRAATNAAM":"St. Liduinastraat ","HUISNUMMER-TOEVOEGING":"35","POSTCODE":"3117 CP  ","PLAATSNAAM":"SCHIEDAM","DENOMINATIE":null,"lat":51.913091,"long":4.394144},"coordinates":[5946,2296]},{"type":"Point","properties":{"VESTIGINGSNAAM":"ROC Zadkine ","WIJK":null,"buurt":null,"STRAATNAAM":"Ringersstraat ","HUISNUMMER-TOEVOEGING":"21b","POSTCODE":"3125 BP  ","PLAATSNAAM":"SCHIEDAM","DENOMINATIE":null,"lat":51.932559,"long":4.401867},"coordinates":[7547,7222]},{"type":"Point","properties":{"VESTIGINGSNAAM":"Albeda College ","WIJK":null,"buurt":null,"STRAATNAAM":"Schiedamseweg ","HUISNUMMER-TOEVOEGING":"245","POSTCODE":"3118 JB  ","PLAATSNAAM":"SCHIEDAM","DENOMINATIE":null,"lat":51.92396,"long":4.383355},"coordinates":[3710,5046]}]}},"arcs":[],"transform":{"scale":[0.000004823982398239738,0.000003951995199519852],"translate":[4.365459,51.904019]}}